[{"OBJECT_NAME":"STARLINK-2752","OBJECT_ID":"2021-044BG","EPOCH":"2026-03-10T00:00:02.999808","MEAN_MOTION":15.3016501,"ECCENTRICITY":0.0001606,"INCLINATION":53.1594,"RA_OF_ASC_NODE":73.8214,"ARG_OF_PERICENTER":99.0542,"MEAN_ANOMALY":90.7161,"EPHEMERIS_TYPE":0,"CLASSIFICATION_TYPE":"U","NORAD_CAT_ID":48692,"ELEMENT_SET_NO":999,"REV_AT_EPOCH":574,"BSTAR":0.0013729382,"MEAN_MOTION_DOT":0.00040481,"MEAN_MOTION_DDOT":0},{"OBJECT_NAME":"SCS-01 H","OBJECT_ID":"2025-100H","EPOCH":"2026-03-09T23:19:05.376864","MEAN_MOTION":15.31767757,"ECCENTRICITY":0.00071581,"INCLINATION":97.3749,"RA_OF_ASC_NODE":145.8085,"ARG_OF_PERICENTER":277.8492,"MEAN_ANOMALY":82.1937,"EPHEMERIS_TYPE":0,"CLASSIFICATION_TYPE":"U","NORAD_CAT_ID":63989,"ELEMENT_SET_NO":999,"REV_AT_EPOCH":4566,"BSTAR":0.0011436254,"MEAN_MOTION_DOT":0.00035149,"MEAN_MOTION_DDOT":0}]
